ONEWEB-0134             
1 47280U 20100Y   24102.60028387 -.00000087  00000+0 -27820-3 0  9995
2 47280  87.8971 149.2327 0001928 106.2585 253.8756 13.12443294160228
ONEWEB-0135             
1 47281U 20100Z   24102.56854398  .00000251  00000+0  66181-3 0  9994
2 47281  87.8977 149.2507 0002014 100.7146 259.4209 13.12442306160244
ONEWEB-0136             
1 47282U 20100AA  24102.59077119  .00000237  00000+0  62425-3 0  9997
2 47282  87.8973 149.2148 0002065 113.5704 246.5642 13.12441794160170
ONEWEB-0137             
1 47283U 20100AB  24102.54786590 -.00000359  00000+0 -10329-2 0  9995
2 47283  87.8970 149.2511 0002226  99.4232 260.7148 13.12440990160074
ONEWEB-0138             
1 47284U 20100AC  24102.60348792 -.00000138  00000+0 -41836-3 0  9994
2 47284  87.8970 149.2525 0002068 102.1097 258.0263 13.12440414160164
ONEWEB-0139             
1 47285U 20100AD  24102.49865240  .00000389  00000+0  10462-2 0  9990
2 47285  87.8976 149.2428 0002022  99.9445 260.1912 13.12441745160223
ONEWEB-0140             
1 47286U 20100AE  24102.59711625 -.00000014  00000+0 -75567-4 0  9995
2 47286  87.8972 149.2289 0002061 102.9808 257.1551 13.12439318160202
ONEWEB-0141             
1 47287U 20100AF  24102.54073421 -.00000424  00000+0 -12127-2 0  9992
2 47287  87.8974 149.2392 0002159  92.6362 267.5014 13.12442482160180
